ONEWEB-0012             
1 44057U 19010A   25312.17800917  .00000063  00000+0  12990-3 0  9999
2 44057  87.8990 272.8119 0001556  92.0972 268.0337 13.16595640322487
ONEWEB-0010             
1 44058U 19010B   25312.12734536 -.00000058  00000+0 -18502-3 0  9999
2 44058  87.8999 272.8085 0002263  85.7988 274.3402 13.16596036322529
ONEWEB-0008             
1 44059U 19010C   25312.15268647 -.00000003  00000+0 -40332-4 0  9995
2 44059  87.9005 272.7998 0001845  77.0001 283.1336 13.16593483322646
ONEWEB-0007             
1 44060U 19010D   25312.01222111  .00000505  00000+0  13073-2 0  9993
2 44060  87.8958 303.3649 0001861  97.4872 262.6469 13.15546445322293
ONEWEB-0006             
1 44061U 19010E   25312.01618536 -.00000041  00000+0 -14313-3 0  9990
2 44061  87.8963 303.3087 0002086  93.5681 266.5688 13.15548629322349
ONEWEB-0011             
1 44062U 19010F   25311.98447602  .00000069  00000+0  14937-3 0  9990
2 44062  87.8963 303.3254 0001987  84.4207 275.7150 13.15549937322336
ONEWEB-0013             
1 45131U 20008A   25312.11186434  .00000032  00000+0  57444-4 0  9997
2 45131  87.8477  97.4708 0001066 139.4132 220.7075 13.09431110277134
ONEWEB-0017             
1 45132U 20008B   25312.09747951 -.00000197  00000+0 -59969-3 0  9999
2 45132  87.8791  80.3472 0001815  96.5641 263.5693 13.10376362278998
ONEWEB-0020             
1 45133U 20008C   25311.91487463 -.00000090  00000+0 -29458-3 0  9991
2 45133  87.8795  80.3687 0001471  91.7708 268.3588 13.10372291279365
ONEWEB-0021             
1 45134U 20008D   25311.85346175 -.00000559  00000+0 -16391-2 0  9990
2 45134  87.8785  80.4123 0001535 102.5815 257.5484 13.10375328279664
ONEWEB-0023             
1 45136U 20008F   25312.09332316 -.00000426  00000+0 -12571-2 0  9990
2 45136  87.8789  80.3470 0001351  95.4386 264.6895 13.10374905279129
ONEWEB-0024             
1 45137U 20008G   25311.91322076 -.00000203  00000+0 -61767-3 0  9998
2 45137  87.8809  80.3454 0001636  99.6259 260.5053 13.10370868279266
ONEWEB-0025             
1 45138U 20008H   25312.08334990 -.00000635  00000+0 -18553-2 0  9999
2 45138  87.8804  80.3189 0001385 110.2599 249.8677 13.10372123279612
ONEWEB-0026             
1 45139U 20008J   25312.05050707 -.00000590  00000+0 -17003-2 0  9997
2 45139  87.8863  65.1000 0001758  96.9008 263.2320 13.11417694282129
ONEWEB-0028             
1 45140U 20008K   25311.85469535  .00000580  00000+0  16012-2 0  9995
2 45140  87.8852  65.1560 0001287 124.7768 235.3481 13.11417693279617
ONEWEB-0032             
1 45141U 20008L   25312.09913413 -.00000150  00000+0 -46537-3 0  9993
2 45141  87.8792  80.3465 0001436 102.4671 257.6617 13.10376865279348
ONEWEB-0033             
1 45142U 20008M   25312.07420124  .00001076  00000+0  30462-2 0  9999
2 45142  87.8797  80.3648 0001775  97.6297 262.5032 13.10390399279256
