[{"OBJECT_NAME":"ONEWEB-0012","OBJECT_ID":"2019-010A","EPOCH":"2025-11-08T04:16:19.992288","MEAN_MOTION":13.1659564,"ECCENTRICITY":0.0001556,"INCLINATION":87.899,"RA_OF_ASC_NODE":272.8119,"ARG_OF_PERICENTER":92.0972,"MEAN_ANOMALY":268.0337,"EPHEMERIS_TYPE":0,"CLASSIFICATION_TYPE":"U","NORAD_CAT_ID":44057,"ELEMENT_SET_NO":999,"REV_AT_EPOCH":32248,"BSTAR":0.0001299,"MEAN_MOTION_DOT":6.3e-7,"MEAN_MOTION_DDOT":0},{"OBJECT_NAME":"ONEWEB-0010","OBJECT_ID":"2019-010B","EPOCH":"2025-11-08T03:03:22.639104","MEAN_MOTION":13.16596036,"ECCENTRICITY":0.0002263,"INCLINATION":87.8999,"RA_OF_ASC_NODE":272.8085,"ARG_OF_PERICENTER":85.7988,"MEAN_ANOMALY":274.3402,"EPHEMERIS_TYPE":0,"CLASSIFICATION_TYPE":"U","NORAD_CAT_ID":44058,"ELEMENT_SET_NO":999,"REV_AT_EPOCH":32252,"BSTAR":-0.00018502,"MEAN_MOTION_DOT":-5.8e-7,"MEAN_MOTION_DDOT":0},{"OBJECT_NAME":"ONEWEB-0008","OBJECT_ID":"2019-010C","EPOCH":"2025-11-08T03:39:52.111008","MEAN_MOTION":13.16593483,"ECCENTRICITY":0.0001845,"INCLINATION":87.9005,"RA_OF_ASC_NODE":272.7998,"ARG_OF_PERICENTER":77.0001,"MEAN_ANOMALY":283.1336,"EPHEMERIS_TYPE":0,"CLASSIFICATION_TYPE":"U","NORAD_CAT_ID":44059,"ELEMENT_SET_NO":999,"REV_AT_EPOCH":32264,"BSTAR":-4.0332e-5,"MEAN_MOTION_DOT":-3.0e-8,"MEAN_MOTION_DDOT":0},{"OBJECT_NAME":"ONEWEB-0007","OBJECT_ID":"2019-010D","EPOCH":"2025-11-08T00:17:35.903904","MEAN_MOTION":13.15546445,"ECCENTRICITY":0.0001861,"INCLINATION":87.8958,"RA_OF_ASC_NODE":303.3649,"ARG_OF_PERICENTER":97.4872,"MEAN_ANOMALY":262.6469,"EPHEMERIS_TYPE":0,"CLASSIFICATION_TYPE":"U","NORAD_CAT_ID":44060,"ELEMENT_SET_NO":999,"REV_AT_EPOCH":32229,"BSTAR":0.0013073,"MEAN_MOTION_DOT":5.05e-6,"MEAN_MOTION_DDOT":0},{"OBJECT_NAME":"ONEWEB-0006","OBJECT_ID":"2019-010E","EPOCH":"2025-11-08T00:23:18.415104","MEAN_MOTION":13.15548629,"ECCENTRICITY":0.0002086,"INCLINATION":87.8963,"RA_OF_ASC_NODE":303.3087,"ARG_OF_PERICENTER":93.5681,"MEAN_ANOMALY":266.5688,"EPHEMERIS_TYPE":0,"CLASSIFICATION_TYPE":"U","NORAD_CAT_ID":44061,"ELEMENT_SET_NO":999,"REV_AT_EPOCH":32234,"BSTAR":-0.00014313,"MEAN_MOTION_DOT":-4.1e-7,"MEAN_MOTION_DDOT":0},{"OBJECT_NAME":"ONEWEB-0011","OBJECT_ID":"2019-010F","EPOCH":"2025-11-07T23:37:38.728128","MEAN_MOTION":13.15549937,"ECCENTRICITY":0.0001987,"INCLINATION":87.8963,"RA_OF_ASC_NODE":303.3254,"ARG_OF_PERICENTER":84.4207,"MEAN_ANOMALY":275.715,"EPHEMERIS_TYPE":0,"CLASSIFICATION_TYPE":"U","NORAD_CAT_ID":44062,"ELEMENT_SET_NO":999,"REV_AT_EPOCH":32233,"BSTAR":0.00014937,"MEAN_MOTION_DOT":6.9e-7,"MEAN_MOTION_DDOT":0},{"OBJECT_NAME":"ONEWEB-0013","OBJECT_ID":"2020-008A","EPOCH":"2025-11-08T02:41:05.078976","MEAN_MOTION":13.0943111,"ECCENTRICITY":0.0001066,"INCLINATION":87.8477,"RA_OF_ASC_NODE":97.4708,"ARG_OF_PERICENTER":139.4132,"MEAN_ANOMALY":220.7075,"EPHEMERIS_TYPE":0,"CLASSIFICATION_TYPE":"U","NORAD_CAT_ID":45131,"ELEMENT_SET_NO":999,"REV_AT_EPOCH":27713,"BSTAR":5.7444e-5,"MEAN_MOTION_DOT":3.2e-7,"MEAN_MOTION_DDOT":0},{"OBJECT_NAME":"ONEWEB-0017","OBJECT_ID":"2020-008B","EPOCH":"2025-11-08T02:20:22.229664","MEAN_MOTION":13.10376362,"ECCENTRICITY":0.0001815,"INCLINATION":87.8791,"RA_OF_ASC_NODE":80.3472,"ARG_OF_PERICENTER":96.5641,"MEAN_ANOMALY":263.5693,"EPHEMERIS_TYPE":0,"CLASSIFICATION_TYPE":"U","NORAD_CAT_ID":45132,"ELEMENT_SET_NO":999,"REV_AT_EPOCH":27899,"BSTAR":-0.00059969,"MEAN_MOTION_DOT":-1.97e-6,"MEAN_MOTION_DDOT":0},{"OBJECT_NAME":"ONEWEB-0020","OBJECT_ID":"2020-008C","EPOCH":"2025-11-07T21:57:25.168032","MEAN_MOTION":13.10372291,"ECCENTRICITY":0.0001471,"INCLINATION":87.8795,"RA_OF_ASC_NODE":80.3687,"ARG_OF_PERICENTER":91.7708,"MEAN_ANOMALY":268.3588,"EPHEMERIS_TYPE":0,"CLASSIFICATION_TYPE":"U","NORAD_CAT_ID":45133,"ELEMENT_SET_NO":999,"REV_AT_EPOCH":27936,"BSTAR":-0.00029458,"MEAN_MOTION_DOT":-9.0e-7,"MEAN_MOTION_DDOT":0},{"OBJECT_NAME":"ONEWEB-0021","OBJECT_ID":"2020-008D","EPOCH":"2025-11-07T20:28:59.095200","MEAN_MOTION":13.10375328,"ECCENTRICITY":0.0001535,"INCLINATION":87.8785,"RA_OF_ASC_NODE":80.4123,"ARG_OF_PERICENTER":102.5815,"MEAN_ANOMALY":257.5484,"EPHEMERIS_TYPE":0,"CLASSIFICATION_TYPE":"U","NORAD_CAT_ID":45134,"ELEMENT_SET_NO":999,"REV_AT_EPOCH":27966,"BSTAR":-0.0016391,"MEAN_MOTION_DOT":-5.59e-6,"MEAN_MOTION_DDOT":0},{"OBJECT_NAME":"ONEWEB-0023","OBJECT_ID":"2020-008F","EPOCH":"2025-11-08T02:14:23.121024","MEAN_MOTION":13.10374905,"ECCENTRICITY":0.0001351,"INCLINATION":87.8789,"RA_OF_ASC_NODE":80.347,"ARG_OF_PERICENTER":95.4386,"MEAN_ANOMALY":264.6895,"EPHEMERIS_TYPE":0,"CLASSIFICATION_TYPE":"U","NORAD_CAT_ID":45136,"ELEMENT_SET_NO":999,"REV_AT_EPOCH":27912,"BSTAR":-0.0012571,"MEAN_MOTION_DOT":-4.26e-6,"MEAN_MOTION_DDOT":0},{"OBJECT_NAME":"ONEWEB-0024","OBJECT_ID":"2020-008G","EPOCH":"2025-11-07T21:55:02.273664","MEAN_MOTION":13.10370868,"ECCENTRICITY":0.0001636,"INCLINATION":87.8809,"RA_OF_ASC_NODE":80.3454,"ARG_OF_PERICENTER":99.6259,"MEAN_ANOMALY":260.5053,"EPHEMERIS_TYPE":0,"CLASSIFICATION_TYPE":"U","NORAD_CAT_ID":45137,"ELEMENT_SET_NO":999,"REV_AT_EPOCH":27926,"BSTAR":-0.00061767,"MEAN_MOTION_DOT":-2.03e-6,"MEAN_MOTION_DDOT":0},{"OBJECT_NAME":"ONEWEB-0025","OBJECT_ID":"2020-008H","EPOCH":"2025-11-08T02:00:01.431360","MEAN_MOTION":13.10372123,"ECCENTRICITY":0.0001385,"INCLINATION":87.8804,"RA_OF_ASC_NODE":80.3189,"ARG_OF_PERICENTER":110.2599,"MEAN_ANOMALY":249.8677,"EPHEMERIS_TYPE":0,"CLASSIFICATION_TYPE":"U","NORAD_CAT_ID":45138,"ELEMENT_SET_NO":999,"REV_AT_EPOCH":27961,"BSTAR":-0.0018553,"MEAN_MOTION_DOT":-6.35e-6,"MEAN_MOTION_DDOT":0},{"OBJECT_NAME":"ONEWEB-0026","OBJECT_ID":"2020-008J","EPOCH":"2025-11-08T01:12:43.810848","MEAN_MOTION":13.11417694,"ECCENTRICITY":0.0001758,"INCLINATION":87.8863,"RA_OF_ASC_NODE":65.1,"ARG_OF_PERICENTER":96.9008,"MEAN_ANOMALY":263.232,"EPHEMERIS_TYPE":0,"CLASSIFICATION_TYPE":"U","NORAD_CAT_ID":45139,"ELEMENT_SET_NO":999,"REV_AT_EPOCH":28212,"BSTAR":-0.0017003,"MEAN_MOTION_DOT":-5.9e-6,"MEAN_MOTION_DDOT":0},{"OBJECT_NAME":"ONEWEB-0028","OBJECT_ID":"2020-008K","EPOCH":"2025-11-07T20:30:45.678240","MEAN_MOTION":13.11417693,"ECCENTRICITY":0.0001287,"INCLINATION":87.8852,"RA_OF_ASC_NODE":65.156,"ARG_OF_PERICENTER":124.7768,"MEAN_ANOMALY":235.3481,"EPHEMERIS_TYPE":0,"CLASSIFICATION_TYPE":"U","NORAD_CAT_ID":45140,"ELEMENT_SET_NO":999,"REV_AT_EPOCH":27961,"BSTAR":0.0016012,"MEAN_MOTION_DOT":5.8e-6,"MEAN_MOTION_DDOT":0},{"OBJECT_NAME":"ONEWEB-0032","OBJECT_ID":"2020-008L","EPOCH":"2025-11-08T02:22:45.188832","MEAN_MOTION":13.10376865,"ECCENTRICITY":0.0001436,"INCLINATION":87.8792,"RA_OF_ASC_NODE":80.3465,"ARG_OF_PERICENTER":102.4671,"MEAN_ANOMALY":257.6617,"EPHEMERIS_TYPE":0,"CLASSIFICATION_TYPE":"U","NORAD_CAT_ID":45141,"ELEMENT_SET_NO":999,"REV_AT_EPOCH":27934,"BSTAR":-0.00046537,"MEAN_MOTION_DOT":-1.5e-6,"MEAN_MOTION_DDOT":0},{"OBJECT_NAME":"ONEWEB-0033","OBJECT_ID":"2020-008M","EPOCH":"2025-11-08T01:46:50.987136","MEAN_MOTION":13.10390399,"ECCENTRICITY":0.0001775,"INCLINATION":87.8797,"RA_OF_ASC_NODE":80.3648,"ARG_OF_PERICENTER":97.6297,"MEAN_ANOMALY":262.5032,"EPHEMERIS_TYPE":0,"CLASSIFICATION_TYPE":"U","NORAD_CAT_ID":45142,"ELEMENT_SET_NO":999,"REV_AT_EPOCH":27925,"BSTAR":0.0030462,"MEAN_MOTION_DOT":1.076e-5,"MEAN_MOTION_DDOT":0}]
